{
  "type": "FeatureCollection",
  "features": [
    {
      "type": "Feature",
      "properties": {
        "norad_id": 39773,
        "name": "EUTELSAT 3B",
        "group": "eutelsat",
        "lat": -0.04866467778733578,
        "lon": -53.84671003178434,
        "alt_km": 35781.74034192872,
        "timestamp": "2025-12-10T14:53:36.793643+00:00",
        "meta_object_name": "EUTELSAT 3B",
        "meta_object_id": "2014-030A",
        "meta_epoch": "2025-12-10T04:08:38.649120",
        "meta_mean_motion": 1.00271706,
        "meta_eccentricity": 0.00046926,
        "meta_inclination": 0.0626,
        "meta_ra_of_asc_node": 343.4311,
        "meta_arg_of_pericenter": 245.1454,
        "meta_mean_anomaly": 275.8439,
        "meta_ephemeris_type": 0,
        "meta_classification_type": "U",
        "meta_norad_cat_id": 39773,
        "meta_element_set_no": 999,
        "meta_rev_at_epoch": 4217,
        "meta_bstar": 0,
        "meta_mean_motion_dot": 2.3e-07,
        "meta_mean_motion_ddot": 0,
        "tle_line1": "1 39773U 14030A   25344.17266955  .00000023  00000+0  00000+0 0  9999",
        "tle_line2": "2 39773   0.0626 343.4311 0004692 245.1454 275.8439  1.00271706 42176"
      },
      "geometry": {
        "type": "Point",
        "coordinates": [
          -53.84671003178434,
          -0.04866467778733578
        ]
      }
    },
    {
      "type": "Feature",
      "properties": {
        "norad_id": 40425,
        "name": "EUTELSAT 115 WEST B",
        "group": "eutelsat",
        "lat": 0.004101377411934976,
        "lon": -171.90283173215738,
        "alt_km": 35786.19542833937,
        "timestamp": "2025-12-10T14:53:36.793654+00:00",
        "meta_object_name": "EUTELSAT 115 WEST B",
        "meta_object_id": "2015-010B",
        "meta_epoch": "2025-12-10T04:39:38.509344",
        "meta_mean_motion": 1.00271354,
        "meta_eccentricity": 9.62e-06,
        "meta_inclination": 0.0103,
        "meta_ra_of_asc_node": 146.2902,
        "meta_arg_of_pericenter": 311.1919,
        "meta_mean_anomaly": 296.7047,
        "meta_ephemeris_type": 0,
        "meta_classification_type": "U",
        "meta_norad_cat_id": 40425,
        "meta_element_set_no": 999,
        "meta_rev_at_epoch": 3949,
        "meta_bstar": 0,
        "meta_mean_motion_dot": -2.2e-07,
        "meta_mean_motion_ddot": 0,
        "tle_line1": "1 40425U 15010B   25344.19419571 -.00000022  00000+0  00000+0 0  9990",
        "tle_line2": "2 40425   0.0103 146.2902 0000096 311.1919 296.7047  1.00271354 39498"
      },
      "geometry": {
        "type": "Point",
        "coordinates": [
          -171.90283173215738,
          0.004101377411934976
        ]
      }
    },
    {
      "type": "Feature",
      "properties": {
        "norad_id": 40875,
        "name": "EUTELSAT 8 WEST B",
        "group": "eutelsat",
        "lat": -0.073553122179565,
        "lon": -64.96391346308039,
        "alt_km": 35771.64845926907,
        "timestamp": "2025-12-10T14:53:36.793665+00:00",
        "meta_object_name": "EUTELSAT 8 WEST B",
        "meta_object_id": "2015-039B",
        "meta_epoch": "2025-12-10T02:31:38.699328",
        "meta_mean_motion": 1.00271527,
        "meta_eccentricity": 0.00041722,
        "meta_inclination": 0.0646,
        "meta_ra_of_asc_node": 2.1604,
        "meta_arg_of_pericenter": 258.1064,
        "meta_mean_anomaly": 208.7456,
        "meta_ephemeris_type": 0,
        "meta_classification_type": "U",
        "meta_norad_cat_id": 40875,
        "meta_element_set_no": 999,
        "meta_rev_at_epoch": 3776,
        "meta_bstar": 0,
        "meta_mean_motion_dot": -6.2e-07,
        "meta_mean_motion_ddot": 0,
        "tle_line1": "1 40875U 15039B   25344.10530902 -.00000062  00000+0  00000+0 0  9997",
        "tle_line2": "2 40875   0.0646   2.1604 0004172 258.1064 208.7456  1.00271527 37765"
      },
      "geometry": {
        "type": "Point",
        "coordinates": [
          -64.96391346308039,
          -0.073553122179565
        ]
      }
    },
    {
      "type": "Feature",
      "properties": {
        "norad_id": 41310,
        "name": "EUTELSAT 9B",
        "group": "eutelsat",
        "lat": -0.043765341260006224,
        "lon": -47.949124455565325,
        "alt_km": 35771.74636742472,
        "timestamp": "2025-12-10T14:53:36.793675+00:00",
        "meta_object_name": "EUTELSAT 9B",
        "meta_object_id": "2016-005A",
        "meta_epoch": "2025-12-10T04:08:38.649120",
        "meta_mean_motion": 1.00272588,
        "meta_eccentricity": 0.00048434,
        "meta_inclination": 0.0386,
        "meta_ra_of_asc_node": 57.1117,
        "meta_arg_of_pericenter": 208.3432,
        "meta_mean_anomaly": 244.8735,
        "meta_ephemeris_type": 0,
        "meta_classification_type": "U",
        "meta_norad_cat_id": 41310,
        "meta_element_set_no": 999,
        "meta_rev_at_epoch": 3622,
        "meta_bstar": 0,
        "meta_mean_motion_dot": 6.5e-07,
        "meta_mean_motion_ddot": 0,
        "tle_line1": "1 41310U 16005A   25344.17266955  .00000065  00000+0  00000+0 0  9999",
        "tle_line2": "2 41310   0.0386  57.1117 0004843 208.3432 244.8735  1.00272588 36220"
      },
      "geometry": {
        "type": "Point",
        "coordinates": [
          -47.949124455565325,
          -0.043765341260006224
        ]
      }
    },
    {
      "type": "Feature",
      "properties": {
        "norad_id": 41382,
        "name": "EUTELSAT 65 WEST A",
        "group": "eutelsat",
        "lat": -0.05612457938129683,
        "lon": -122.22304843964453,
        "alt_km": 35776.10975849602,
        "timestamp": "2025-12-10T14:53:36.793686+00:00",
        "meta_object_name": "EUTELSAT 65 WEST A",
        "meta_object_id": "2016-014A",
        "meta_epoch": "2025-12-10T04:07:38.715168",
        "meta_mean_motion": 1.00272579,
        "meta_eccentricity": 0.00026195,
        "meta_inclination": 0.0501,
        "meta_ra_of_asc_node": 7.2682,
        "meta_arg_of_pericenter": 258.3578,
        "meta_mean_anomaly": 170.2329,
        "meta_ephemeris_type": 0,
        "meta_classification_type": "U",
        "meta_norad_cat_id": 41382,
        "meta_element_set_no": 999,
        "meta_rev_at_epoch": 3564,
        "meta_bstar": 0,
        "meta_mean_motion_dot": -2.73e-06,
        "meta_mean_motion_ddot": 0,
        "tle_line1": "1 41382U 16014A   25344.17197587 -.00000273  00000+0  00000+0 0  9994",
        "tle_line2": "2 41382   0.0501   7.2682 0002619 258.3578 170.2329  1.00272579 35642"
      },
      "geometry": {
        "type": "Point",
        "coordinates": [
          -122.22304843964453,
          -0.05612457938129683
        ]
      }
    },
    {
      "type": "Feature",
      "properties": {
        "norad_id": 41589,
        "name": "EUTELSAT 117 WEST B",
        "group": "eutelsat",
        "lat": 0.006301709064903069,
        "lon": -173.99459381422233,
        "alt_km": 35786.21214216172,
        "timestamp": "2025-12-10T14:53:36.793697+00:00",
        "meta_object_name": "EUTELSAT 117 WEST B",
        "meta_object_id": "2016-038B",
        "meta_epoch": "2025-12-09T14:43:38.546976",
        "meta_mean_motion": 1.00271212,
        "meta_eccentricity": 3.695e-05,
        "meta_inclination": 0.0013,
        "meta_ra_of_asc_node": 169.4504,
        "meta_arg_of_pericenter": 286.2539,
        "meta_mean_anomaly": 86.8165,
        "meta_ephemeris_type": 0,
        "meta_classification_type": "U",
        "meta_norad_cat_id": 41589,
        "meta_element_set_no": 999,
        "meta_rev_at_epoch": 3476,
        "meta_bstar": 0,
        "meta_mean_motion_dot": -9e-08,
        "meta_mean_motion_ddot": 0,
        "tle_line1": "1 41589U 16038B   25343.61364059 -.00000009  00000+0  00000+0 0  9994",
        "tle_line2": "2 41589   0.0013 169.4504 0000369 286.2539  86.8165  1.00271212 34765"
      },
      "geometry": {
        "type": "Point",
        "coordinates": [
          -173.99459381422233,
          0.006301709064903069
        ]
      }
    },
    {
      "type": "Feature",
      "properties": {
        "norad_id": 42741,
        "name": "EUTELSAT 172B",
        "group": "eutelsat",
        "lat": 0.00474135530764822,
        "lon": 114.99285161988807,
        "alt_km": 35786.97684331276,
        "timestamp": "2025-12-10T14:53:36.793707+00:00",
        "meta_object_name": "EUTELSAT 172B",
        "meta_object_id": "2017-029B",
        "meta_epoch": "2025-12-10T04:14:38.556960",
        "meta_mean_motion": 1.00269291,
        "meta_eccentricity": 1.28e-05,
        "meta_inclination": 0.0117,
        "meta_ra_of_asc_node": 93.13,
        "meta_arg_of_pericenter": 134.9379,
        "meta_mean_anomaly": 86.7534,
        "meta_ephemeris_type": 0,
        "meta_classification_type": "U",
        "meta_norad_cat_id": 42741,
        "meta_element_set_no": 999,
        "meta_rev_at_epoch": 3183,
        "meta_bstar": 0,
        "meta_mean_motion_dot": -3e-08,
        "meta_mean_motion_ddot": 0,
        "tle_line1": "1 42741U 17029B   25344.17683515 -.00000003  00000+0  00000+0 0  9993",
        "tle_line2": "2 42741   0.0117  93.1300 0000128 134.9379  86.7534  1.00269291 31830"
      },
      "geometry": {
        "type": "Point",
        "coordinates": [
          114.99285161988807,
          0.00474135530764822
        ]
      }
    }
  ]
}